NORAD_CAT_ID,OBJECT_NAME,OBJECT_TYPE,EPOCH,MEAN_MOTION,ECCENTRICITY,INCLINATION,RA_OF_ASC_NODE,ARG_OF_PERICENTER,MEAN_ANOMALY,BSTAR,MEAN_MOTION_DOT,MEAN_MOTION_DDOT,TLE_LINE0,TLE_LINE1,TLE_LINE2,SEMIMAJOR_AXIS,PERIOD,APOGEE,PERIGEE,DECAYED
52483.0,STARLINK-3875,PAYLOAD,2022-12-01 12:59:39,15.08842095,0.0002108,53.2184,9.8522,35.9414,324.172,2.9577e-05,1.83e-06,0.0,0 STARLINK-3875,1 52483U 22049AJ  22335.54142421  .00000183  00000-0  29577-4 0  9993,2 52483  53.2184   9.8522 0002108  35.9414 324.1720 15.08842095 33355,6917.874,95.437,541.197,538.281,0.0
52483.0,STARLINK-3875,PAYLOAD,2022-12-01 19:21:11,15.08842748,0.0001998,53.2183,8.6628,38.3266,321.7868,3.8076e-05,3.18e-06,0.0,0 STARLINK-3875,1 52483U 22049AJ  22335.80638326  .00000318  00000-0  38076-4 0  9990,2 52483  53.2183   8.6628 0001998  38.3266 321.7868 15.08842748 33391,6917.871999999999,95.437,541.119,538.355,0.0
52483.0,STARLINK-3875,PAYLOAD,2022-12-02 03:18:07,15.0884234,0.0002191,53.2179,7.1756,33.3184,326.7945,0.0002001,2.898e-05,0.0,0 STARLINK-3875,1 52483U 22049AJ  22336.13758206  .00002898  00000-0  20010-3 0  9990,2 52483  53.2179   7.1756 0002191  33.3184 326.7945 15.08842340 33447,6917.873000000001,95.437,541.254,538.2230000000002,0.0
52483.0,STARLINK-3875,PAYLOAD,2022-12-02 19:11:58,15.08841577,0.0002268,53.2172,4.2022,37.1205,322.9944,7.0217e-05,8.29e-06,0.0,0 STARLINK-3875,1 52483U 22049AJ  22336.79998358  .00000829  00000-0  70217-4 0  9993,2 52483  53.2172   4.2022 0002268  37.1205 322.9944 15.08841577 32464,6917.876,95.437,541.31,538.172,0.0
52483.0,STARLINK-3875,PAYLOAD,2022-12-03 11:05:50,15.08840605,0.0002248,53.2183,1.2286,32.5311,327.5819,-3.3494e-06,-3.42e-06,0.0,0 STARLINK-3875,1 52483U 22049AJ  22337.46238795 -.00000342  00000-0 -33494-5 0  9999,2 52483  53.2183   1.2286 0002248  32.5311 327.5819 15.08840605 33644,6917.879,95.438,541.299,538.188,0.0
52483.0,STARLINK-3875,PAYLOAD,2022-12-04 01:24:18,15.08842748,0.0002218,53.2183,358.5523,36.6287,323.4857,7.059899999999999e-05,8.36e-06,0.0,0 STARLINK-3875,1 52483U 22049AJ  22338.05854446  .00000836  00000-0  70599-4 0  9994,2 52483  53.2183 358.5523 0002218  36.6287 323.4857 15.08842748 32657,6917.871999999999,95.437,541.271,538.203,0.0
52483.0,STARLINK-3875,PAYLOAD,2022-12-04 12:32:00,15.08839665,0.000223,53.2181,356.4708,35.036,325.0778,2.1751e-05,5.8e-07,0.0,0 STARLINK-3875,1 52483U 22049AJ  22338.52222747  .00000058  00000-0  21751-4 0  9991,2 52483  53.2181 356.4708 0002230  35.0360 325.0778 15.08839665 33808,6917.880999999999,95.438,541.289,538.2040000000002,0.0
52483.0,STARLINK-3875,PAYLOAD,2022-12-04 18:53:32,15.08844994,0.0002238,53.2182,355.281,36.4775,323.6369,8.957e-05,1.138e-05,0.0,0 STARLINK-3875,1 52483U 22049AJ  22338.78718294  .00001138  00000-0  89570-4 0  9999,2 52483  53.2182 355.2810 0002238  36.4775 323.6369 15.08844994 33848,6917.865,95.437,541.278,538.182,0.0
52483.0,STARLINK-3875,PAYLOAD,2022-12-05 07:36:37,15.08848743,0.000227,53.2181,352.9022,36.3028,323.8118,5.5943e-05,6.02e-06,0.0,0 STARLINK-3875,1 52483U 22049AJ  22339.31709987  .00000602  00000-0  55943-4 0  9990,2 52483  53.2181 352.9022 0002270  36.3028 323.8118 15.08848743 33921,6917.854,95.437,541.289,538.148,0.0
52483.0,STARLINK-3875,PAYLOAD,2022-12-05 12:22:47,15.08841491,0.0002288,53.218,352.0101,36.1306,323.9841,0.0001154,1.549e-05,0.0,0 STARLINK-3875,1 52483U 22049AJ  22339.51582402  .00001549  00000-0  11540-3 0  9998,2 52483  53.2180 352.0101 0002288  36.1306 323.9841 15.08841491 32875,6917.876,95.437,541.3240000000002,538.158,0.0
52483.0,STARLINK-3875,PAYLOAD,2022-12-06 07:27:24,15.08847229,0.0002318,53.2178,348.4418,35.4294,324.6852,0.00014391,2.003e-05,0.0,0 STARLINK-3875,1 52483U 22049AJ  22340.31069776  .00002003  00000-0  14391-3 0  9995,2 52483  53.2178 348.4418 0002318  35.4294 324.6852 15.08847229 34073,6917.858,95.437,541.327,538.12,0.0
52483.0,STARLINK-3875,PAYLOAD,2022-12-07 00:56:40,15.0882635,0.0002289,53.2178,345.1708,35.7552,324.3593,-0.00010667,-1.985e-05,0.0,0 STARLINK-3875,1 52483U 22049AJ  22341.03935846 -.00001985  00000-0 -10667-3 0  9997,2 52483  53.2178 345.1708 0002289  35.7552 324.3593 15.08826350 33100,6917.922,95.438,541.371,538.2040000000002,0.0
52483.0,STARLINK-3875,PAYLOAD,2022-12-07 05:42:49,15.08832389,0.0002306,53.2181,344.2791,35.2974,324.817,-2.6001e-05,-7.02e-06,0.0,0 STARLINK-3875,1 52483U 22049AJ  22341.23807477 -.00000702  00000-0 -26001-4 0  9993,2 52483  53.2181 344.2791 0002306  35.2974 324.8170 15.08832389 33137,6917.904,95.438,541.364,538.173,0.0
52483.0,STARLINK-3875,PAYLOAD,2022-12-07 16:50:31,15.08840301,0.0002277,53.2187,342.1979,35.8105,324.3039,2.1115e-05,4.8e-07,0.0,0 STARLINK-3875,1 52483U 22049AJ  22341.70174988  .00000048  00000-0  21115-4 0  9991,2 52483  53.2187 342.1979 0002277  35.8105 324.3039 15.08840301 33207,6917.879,95.438,541.32,538.169,0.0
52483.0,STARLINK-3875,PAYLOAD,2022-12-08 10:19:45,15.08841119,0.0002391,53.217,338.9263,35.9328,324.1824,0.00010275,1.347e-05,0.0,0 STARLINK-3875,1 52483U 22049AJ  22342.43038733  .00001347  00000-0  10275-3 0  9996,2 52483  53.2170 338.9263 0002391  35.9328 324.1824 15.08841119 34392,6917.877,95.437,541.396,538.0880000000002,0.0
52483.0,STARLINK-3875,PAYLOAD,2022-12-08 16:41:17,15.08849403,0.0002312,53.2177,337.7367,38.0699,322.0457,0.00019434,2.807e-05,0.0,0 STARLINK-3875,1 52483U 22049AJ  22342.69534243  .00002807  00000-0  19434-3 0  9999,2 52483  53.2177 337.7367 0002312  38.0699 322.0457 15.08849403 34437,6917.852,95.437,541.316,538.117,0.0
52483.0,STARLINK-3875,PAYLOAD,2022-12-09 08:35:08,15.0884647,0.0002005,53.2175,334.7633,32.5412,327.5703,0.000167,2.371e-05,0.0,0 STARLINK-3875,1 52483U 22049AJ  22343.35774175  .00002371  00000-0  16700-3 0  9992,2 52483  53.2175 334.7633 0002005  32.5412 327.5703 15.08846470 33455,6917.861,95.437,541.113,538.339,0.0
52483.0,STARLINK-3875,PAYLOAD,2022-12-09 16:32:02,15.08863308,0.0002829,53.217,333.2783,282.3047,77.7629,8.1835e-05,1.015e-05,0.0,0 STARLINK-3875,1 52483U 22049AJ  22343.68891890  .00001015  00000-0  81835-4 0  9998,2 52483  53.2170 333.2783 0002829 282.3047  77.7629 15.08863308 33509,6917.809,95.436,541.631,537.717,0.0
52483.0,STARLINK-3875,PAYLOAD,2022-12-10 06:50:33,15.08833743,0.0002057,53.2171,330.6016,29.0242,331.0864,-3.2526999999999995e-05,-8.06e-06,0.0,0 STARLINK-3875,1 52483U 22049AJ  22344.28511201 -.00000806  00000-0 -32527-4 0  9993,2 52483  53.2171 330.6016 0002057  29.0242 331.0864 15.08833743 33592,6917.9,95.438,541.188,538.342,0.0
52483.0,STARLINK-3875,PAYLOAD,2022-12-10 08:25:56,15.08835622,0.0002106,53.2169,330.3037,26.8516,333.2585,-3.9751e-06,-3.51e-06,0.0,0 STARLINK-3875,1 52483U 22049AJ  22344.35135118 -.00000351  00000-0 -39751-5 0  9992,2 52483  53.2169 330.3037 0002106  26.8516 333.2585 15.08835622 34686,6917.894,95.438,541.216,538.302,0.0
52483.0,STARLINK-3875,PAYLOAD,2022-12-11 08:16:43,15.08843639,0.000213,53.2172,325.8416,30.1445,329.9669,0.00031293,4.696e-05,0.0,0 STARLINK-3875,1 52483U 22049AJ  22345.34495198  .00004696  00000-0  31293-3 0  9994,2 52483  53.2172 325.8416 0002130  30.1445 329.9669 15.08843639 33755,6917.869000000002,95.437,541.2080000000002,538.261,0.0
52483.0,STARLINK-3875,PAYLOAD,2022-12-12 03:21:21,15.08838394,0.0001919,53.2169,322.2733,18.2066,341.8995,0.00021051,3.064e-05,0.0,0 STARLINK-3875,1 52483U 22049AJ  22346.13983381  .00003064  00000-0  21051-3 0  9997,2 52483  53.2169 322.2733 0001919  18.2066 341.8995 15.08838394 33874,6917.885,95.438,541.078,538.423,0.0
52483.0,STARLINK-3875,PAYLOAD,2022-12-12 09:42:54,15.08839111,0.0002296,53.2174,321.0841,34.5441,325.57,0.00010402,1.368e-05,0.0,0 STARLINK-3875,1 52483U 22049AJ  22346.40479481  .00001368  00000-0  10402-3 0  9991,2 52483  53.2174 321.0841 0002296  34.5441 325.5700 15.08839111 34999,6917.8830000000025,95.438,541.336,538.16,0.0
52483.0,STARLINK-3875,PAYLOAD,2022-12-13 04:47:30,15.08891095,0.0001962,53.2178,317.5157,34.2079,325.9039,-0.00063508,-0.00010396,0.0,0 STARLINK-3875,1 52483U 22049AJ  22347.19965459 -.00010396  00000-0 -63508-3 0  9991,2 52483  53.2178 317.5157 0001962  34.2079 325.9039 15.08891095 34039,6917.724,95.434,540.946,538.232,0.0
52483.0,STARLINK-3875,PAYLOAD,2022-12-13 07:58:17,15.08842736,0.000233,53.2179,316.9217,30.1696,329.9430000000001,0.00010638,1.405e-05,0.0,0 STARLINK-3875,1 52483U 22049AJ  22347.33215081  .00001405  00000-0  10638-3 0  9991,2 52483  53.2179 316.9217 0002330  30.1696 329.9430 15.08842736 34059,6917.871999999999,95.437,541.349,538.125,0.0
52483.0,STARLINK-3875,PAYLOAD,2022-12-14 03:02:55,15.0883531,0.000236,53.2178,313.3536,34.8554,325.2592,9.7454e-05,1.263e-05,0.0,0 STARLINK-3875,1 52483U 22049AJ  22348.12703383  .00001263  00000-0  97454-4 0  9990,2 52483  53.2178 313.3536 0002360  34.8554 325.2592 15.08835310 34171,6917.895,95.438,541.3919999999998,538.127,0.0
52483.0,STARLINK-3875,PAYLOAD,2022-12-14 07:49:05,15.08850795,0.000231,53.2178,312.4619,31.4389,328.6741,-0.00024568,-4.198e-05,0.0,0 STARLINK-3875,1 52483U 22049AJ  22348.32575290 -.00004198  00000-0 -24568-3 0  9993,2 52483  53.2178 312.4619 0002310  31.4389 328.6741 15.08850795 35287,6917.847,95.437,541.31,538.114,0.0
52483.0,STARLINK-3875,PAYLOAD,2022-12-15 07:39:52,15.08836163,0.0002244,53.2176,308.001,33.1103,327.0029,-3.6797e-06,-3.47e-06,0.0,0 STARLINK-3875,1 52483U 22049AJ  22349.31935973 -.00000347  00000-0 -36797-5 0  9992,2 52483  53.2176 308.0010 0002244  33.1103 327.0029 15.08836163 34352,6917.892,95.438,541.309,538.205,0.0
52483.0,STARLINK-3875,PAYLOAD,2022-12-15 20:22:57,15.08834737,0.0002221,53.2169,305.6222,31.3063,328.8061,4.303600000000001e-05,3.97e-06,0.0,0 STARLINK-3875,1 52483U 22049AJ  22349.84928099  .00000397  00000-0  43036-4 0  9997,2 52483  53.2169 305.6222 0002221  31.3063 328.8061 15.08834737 35511,6917.896,95.438,541.298,538.225,0.0
